[{"OBJECT_NAME":"STARLINK-32703","OBJECT_ID":"2025-031R","EPOCH":"2025-10-27T01:16:54.192864","MEAN_MOTION":15.27597393,"ECCENTRICITY":0.00015166,"INCLINATION":43.0016,"RA_OF_ASC_NODE":178.3631,"ARG_OF_PERICENTER":261.599,"MEAN_ANOMALY":98.469,"EPHEMERIS_TYPE":0,"CLASSIFICATION_TYPE":"U","NORAD_CAT_ID":62996,"ELEMENT_SET_NO":999,"REV_AT_EPOCH":4065,"BSTAR":0.0012810763,"MEAN_MOTION_DOT":0.00035177,"MEAN_MOTION_DDOT":0},{"OBJECT_NAME":"STARLINK-32881","OBJECT_ID":"2025-031S","EPOCH":"2025-10-27T00:21:23.550624","MEAN_MOTION":15.2759572,"ECCENTRICITY":0.00016079,"INCLINATION":42.999,"RA_OF_ASC_NODE":178.0569,"ARG_OF_PERICENTER":258.9061,"MEAN_ANOMALY":101.161,"EPHEMERIS_TYPE":0,"CLASSIFICATION_TYPE":"U","NORAD_CAT_ID":62997,"ELEMENT_SET_NO":999,"REV_AT_EPOCH":4065,"BSTAR":0.0010636047,"MEAN_MOTION_DOT":0.00029136,"MEAN_MOTION_DDOT":0},{"OBJECT_NAME":"STARLINK-32898","OBJECT_ID":"2025-031T","EPOCH":"2025-10-27T01:07:38.797248","MEAN_MOTION":15.2759118,"ECCENTRICITY":0.00023525,"INCLINATION":43.004,"RA_OF_ASC_NODE":178.312,"ARG_OF_PERICENTER":262.7013,"MEAN_ANOMALY":97.3572,"EPHEMERIS_TYPE":0,"CLASSIFICATION_TYPE":"U","NORAD_CAT_ID":62998,"ELEMENT_SET_NO":999,"REV_AT_EPOCH":4065,"BSTAR":0.0012451918,"MEAN_MOTION_DOT":0.00034175,"MEAN_MOTION_DDOT":0},{"OBJECT_NAME":"STARLINK-32658","OBJECT_ID":"2025-031U","EPOCH":"2025-10-27T02:01:05.850336","MEAN_MOTION":15.27605355,"ECCENTRICITY":0.00016598,"INCLINATION":42.9993,"RA_OF_ASC_NODE":177.7199,"ARG_OF_PERICENTER":276.3412,"MEAN_ANOMALY":83.725,"EPHEMERIS_TYPE":0,"CLASSIFICATION_TYPE":"U","NORAD_CAT_ID":62999,"ELEMENT_SET_NO":999,"REV_AT_EPOCH":4066,"BSTAR":0.00097088418,"MEAN_MOTION_DOT":0.00026572,"MEAN_MOTION_DDOT":0},{"OBJECT_NAME":"STARLINK-32673","OBJECT_ID":"2025-031V","EPOCH":"2025-10-27T00:52:50.761632","MEAN_MOTION":15.27600731,"ECCENTRICITY":0.0001616,"INCLINATION":43.0007,"RA_OF_ASC_NODE":178.2317,"ARG_OF_PERICENTER":259.0517,"MEAN_ANOMALY":101.0153,"EPHEMERIS_TYPE":0,"CLASSIFICATION_TYPE":"U","NORAD_CAT_ID":63000,"ELEMENT_SET_NO":999,"REV_AT_EPOCH":4065,"BSTAR":0.0016139237,"MEAN_MOTION_DOT":0.00044446,"MEAN_MOTION_DDOT":0},{"OBJECT_NAME":"STARLINK-32437","OBJECT_ID":"2025-031W","EPOCH":"2025-10-26T23:55:42.375936","MEAN_MOTION":15.27592408,"ECCENTRICITY":0.00016521,"INCLINATION":43.002,"RA_OF_ASC_NODE":178.8007,"ARG_OF_PERICENTER":277.0671,"MEAN_ANOMALY":82.9993,"EPHEMERIS_TYPE":0,"CLASSIFICATION_TYPE":"U","NORAD_CAT_ID":63001,"ELEMENT_SET_NO":999,"REV_AT_EPOCH":4064,"BSTAR":0.0016313292,"MEAN_MOTION_DOT":0.0004492,"MEAN_MOTION_DDOT":0},{"OBJECT_NAME":"STARLINK-11448 [DTC]","OBJECT_ID":"2025-032A","EPOCH":"2025-10-26T22:44:31.557408","MEAN_MOTION":15.70990212,"ECCENTRICITY":0.0001005,"INCLINATION":42.999,"RA_OF_ASC_NODE":281.138,"ARG_OF_PERICENTER":244.4966,"MEAN_ANOMALY":115.5797,"EPHEMERIS_TYPE":0,"CLASSIFICATION_TYPE":"U","NORAD_CAT_ID":63005,"ELEMENT_SET_NO":999,"REV_AT_EPOCH":4119,"BSTAR":0.0020436,"MEAN_MOTION_DOT":0.00272267,"MEAN_MOTION_DDOT":0},{"OBJECT_NAME":"STARLINK-11553 [DTC]","OBJECT_ID":"2025-032B","EPOCH":"2025-10-27T06:07:12.952992","MEAN_MOTION":15.70884319,"ECCENTRICITY":0.00014553,"INCLINATION":43.0022,"RA_OF_ASC_NODE":280.0324,"ARG_OF_PERICENTER":273.9624,"MEAN_ANOMALY":86.1078,"EPHEMERIS_TYPE":0,"CLASSIFICATION_TYPE":"U","NORAD_CAT_ID":63006,"ELEMENT_SET_NO":999,"REV_AT_EPOCH":4122,"BSTAR":0.0016874377,"MEAN_MOTION_DOT":0.00222377,"MEAN_MOTION_DDOT":0},{"OBJECT_NAME":"STARLINK-11526 [DTC]","OBJECT_ID":"2025-032C","EPOCH":"2025-10-26T22:36:52.750080","MEAN_MOTION":15.71009127,"ECCENTRICITY":0.000152,"INCLINATION":42.9996,"RA_OF_ASC_NODE":281.0943,"ARG_OF_PERICENTER":241.6195,"MEAN_ANOMALY":118.452,"EPHEMERIS_TYPE":0,"CLASSIFICATION_TYPE":"U","NORAD_CAT_ID":63007,"ELEMENT_SET_NO":999,"REV_AT_EPOCH":4118,"BSTAR":0.0026008,"MEAN_MOTION_DOT":0.00350199,"MEAN_MOTION_DDOT":0},{"OBJECT_NAME":"STARLINK-11405 [DTC]","OBJECT_ID":"2025-032D","EPOCH":"2025-10-27T07:24:47.683008","MEAN_MOTION":15.70908989,"ECCENTRICITY":0.0002674,"INCLINATION":43.0032,"RA_OF_ASC_NODE":279.5711,"ARG_OF_PERICENTER":283.1795,"MEAN_ANOMALY":76.8774,"EPHEMERIS_TYPE":0,"CLASSIFICATION_TYPE":"U","NORAD_CAT_ID":63008,"ELEMENT_SET_NO":999,"REV_AT_EPOCH":4108,"BSTAR":0.0017054049,"MEAN_MOTION_DOT":0.00225068,"MEAN_MOTION_DDOT":0},{"OBJECT_NAME":"STARLINK-11586 [DTC]","OBJECT_ID":"2025-032E","EPOCH":"2025-10-27T07:00:33.268608","MEAN_MOTION":15.7099562,"ECCENTRICITY":0.00019332,"INCLINATION":43.0005,"RA_OF_ASC_NODE":279.4336,"ARG_OF_PERICENTER":305.0466,"MEAN_ANOMALY":55.0221,"EPHEMERIS_TYPE":0,"CLASSIFICATION_TYPE":"U","NORAD_CAT_ID":63009,"ELEMENT_SET_NO":999,"REV_AT_EPOCH":4123,"BSTAR":0.0030372098,"MEAN_MOTION_DOT":0.00411891,"MEAN_MOTION_DDOT":0},{"OBJECT_NAME":"STARLINK-11574 [DTC]","OBJECT_ID":"2025-032F","EPOCH":"2025-10-27T07:15:50.192064","MEAN_MOTION":15.70879541,"ECCENTRICITY":0.00022397,"INCLINATION":43.0027,"RA_OF_ASC_NODE":279.5183,"ARG_OF_PERICENTER":280.0782,"MEAN_ANOMALY":79.9833,"EPHEMERIS_TYPE":0,"CLASSIFICATION_TYPE":"U","NORAD_CAT_ID":63010,"ELEMENT_SET_NO":999,"REV_AT_EPOCH":4123,"BSTAR":0.0019395302,"MEAN_MOTION_DOT":0.00256688,"MEAN_MOTION_DDOT":0},{"OBJECT_NAME":"STARLINK-11580 [DTC]","OBJECT_ID":"2025-032G","EPOCH":"2025-10-26T07:44:12.861312","MEAN_MOTION":15.70864101,"ECCENTRICITY":0.00014547,"INCLINATION":42.9995,"RA_OF_ASC_NODE":285.0535,"ARG_OF_PERICENTER":279.9783,"MEAN_ANOMALY":80.0921,"EPHEMERIS_TYPE":0,"CLASSIFICATION_TYPE":"U","NORAD_CAT_ID":63011,"ELEMENT_SET_NO":999,"REV_AT_EPOCH":4093,"BSTAR":0.00099596229,"MEAN_MOTION_DOT":0.00129487,"MEAN_MOTION_DDOT":0},{"OBJECT_NAME":"STARLINK-11449 [DTC]","OBJECT_ID":"2025-032H","EPOCH":"2025-10-27T06:52:53.959296","MEAN_MOTION":15.70894046,"ECCENTRICITY":0.00019762,"INCLINATION":43.0006,"RA_OF_ASC_NODE":279.3893,"ARG_OF_PERICENTER":268.8901,"MEAN_ANOMALY":91.174,"EPHEMERIS_TYPE":0,"CLASSIFICATION_TYPE":"U","NORAD_CAT_ID":63012,"ELEMENT_SET_NO":999,"REV_AT_EPOCH":4123,"BSTAR":0.001212286,"MEAN_MOTION_DOT":0.00158467,"MEAN_MOTION_DDOT":0},{"OBJECT_NAME":"STARLINK-11577 [DTC]","OBJECT_ID":"2025-032J","EPOCH":"2025-10-27T07:08:10.947552","MEAN_MOTION":15.70986576,"ECCENTRICITY":0.00039833,"INCLINATION":43.0009,"RA_OF_ASC_NODE":279.4742,"ARG_OF_PERICENTER":252.0784,"MEAN_ANOMALY":107.965,"EPHEMERIS_TYPE":0,"CLASSIFICATION_TYPE":"U","NORAD_CAT_ID":63013,"ELEMENT_SET_NO":999,"REV_AT_EPOCH":4123,"BSTAR":0.0020907762,"MEAN_MOTION_DOT":0.00278778,"MEAN_MOTION_DDOT":0},{"OBJECT_NAME":"STARLINK-11578 [DTC]","OBJECT_ID":"2025-032K","EPOCH":"2025-10-26T23:53:19.974048","MEAN_MOTION":15.70977205,"ECCENTRICITY":0.0001167,"INCLINATION":42.9994,"RA_OF_ASC_NODE":281.5185,"ARG_OF_PERICENTER":73.8066,"MEAN_ANOMALY":286.293,"EPHEMERIS_TYPE":0,"CLASSIFICATION_TYPE":"U","NORAD_CAT_ID":63014,"ELEMENT_SET_NO":999,"REV_AT_EPOCH":4113,"BSTAR":0.0020605,"MEAN_MOTION_DOT":0.00274442,"MEAN_MOTION_DDOT":0},{"OBJECT_NAME":"STARLINK-11541 [DTC]","OBJECT_ID":"2025-032L","EPOCH":"2025-10-27T06:29:58.037568","MEAN_MOTION":15.70890052,"ECCENTRICITY":0.0001614,"INCLINATION":42.9993,"RA_OF_ASC_NODE":279.26,"ARG_OF_PERICENTER":278.7612,"MEAN_ANOMALY":81.3073,"EPHEMERIS_TYPE":0,"CLASSIFICATION_TYPE":"U","NORAD_CAT_ID":63015,"ELEMENT_SET_NO":999,"REV_AT_EPOCH":4124,"BSTAR":0.0019333231,"MEAN_MOTION_DOT":0.00255952,"MEAN_MOTION_DDOT":0},{"OBJECT_NAME":"STARLINK-11545 [DTC]","OBJECT_ID":"2025-032M","EPOCH":"2025-10-27T05:13:41.781216","MEAN_MOTION":15.70883034,"ECCENTRICITY":0.00014776,"INCLINATION":42.9995,"RA_OF_ASC_NODE":279.7282,"ARG_OF_PERICENTER":264.3827,"MEAN_ANOMALY":95.6873,"EPHEMERIS_TYPE":0,"CLASSIFICATION_TYPE":"U","NORAD_CAT_ID":63016,"ELEMENT_SET_NO":999,"REV_AT_EPOCH":4123,"BSTAR":0.0016363418,"MEAN_MOTION_DOT":0.00215437,"MEAN_MOTION_DDOT":0},{"OBJECT_NAME":"STARLINK-11400 [DTC]","OBJECT_ID":"2025-032N","EPOCH":"2025-10-27T07:23:29.171328","MEAN_MOTION":15.70820136,"ECCENTRICITY":0.0001399,"INCLINATION":43.0011,"RA_OF_ASC_NODE":279.5588,"ARG_OF_PERICENTER":293.9812,"MEAN_ANOMALY":66.0909,"EPHEMERIS_TYPE":0,"CLASSIFICATION_TYPE":"U","NORAD_CAT_ID":63017,"ELEMENT_SET_NO":999,"REV_AT_EPOCH":4123,"BSTAR":0.0021082345,"MEAN_MOTION_DOT":0.00279117,"MEAN_MOTION_DDOT":0},{"OBJECT_NAME":"STARLINK-32870","OBJECT_ID":"2025-032P","EPOCH":"2025-10-27T04:47:47.707008","MEAN_MOTION":15.27602207,"ECCENTRICITY":8.552e-5,"INCLINATION":43.0051,"RA_OF_ASC_NODE":10.0041,"ARG_OF_PERICENTER":210.261,"MEAN_ANOMALY":149.8193,"EPHEMERIS_TYPE":0,"CLASSIFICATION_TYPE":"U","NORAD_CAT_ID":63018,"ELEMENT_SET_NO":999,"REV_AT_EPOCH":4020,"BSTAR":0.00094556566,"MEAN_MOTION_DOT":0.00025866,"MEAN_MOTION_DDOT":0},{"OBJECT_NAME":"STARLINK-32872","OBJECT_ID":"2025-032Q","EPOCH":"2025-10-27T05:19:15.150432","MEAN_MOTION":15.27583328,"ECCENTRICITY":7.506e-5,"INCLINATION":43.0012,"RA_OF_ASC_NODE":10.172,"ARG_OF_PERICENTER":269.0696,"MEAN_ANOMALY":91.0069,"EPHEMERIS_TYPE":0,"CLASSIFICATION_TYPE":"U","NORAD_CAT_ID":63019,"ELEMENT_SET_NO":999,"REV_AT_EPOCH":4020,"BSTAR":0.00112808,"MEAN_MOTION_DOT":0.00030913,"MEAN_MOTION_DDOT":0},{"OBJECT_NAME":"STARLINK-32677","OBJECT_ID":"2025-032R","EPOCH":"2025-10-27T06:27:29.486592","MEAN_MOTION":15.27631185,"ECCENTRICITY":0.00016216,"INCLINATION":43.004,"RA_OF_ASC_NODE":9.6637,"ARG_OF_PERICENTER":253.9135,"MEAN_ANOMALY":106.1538,"EPHEMERIS_TYPE":0,"CLASSIFICATION_TYPE":"U","NORAD_CAT_ID":63020,"ELEMENT_SET_NO":999,"REV_AT_EPOCH":4020,"BSTAR":0.0016215219,"MEAN_MOTION_DOT":0.000447,"MEAN_MOTION_DDOT":0},{"OBJECT_NAME":"STARLINK-32929","OBJECT_ID":"2025-032S","EPOCH":"2025-10-27T04:58:53.845824","MEAN_MOTION":15.27601183,"ECCENTRICITY":1.796e-5,"INCLINATION":42.9994,"RA_OF_ASC_NODE":10.0597,"ARG_OF_PERICENTER":139.2526,"MEAN_ANOMALY":220.8339,"EPHEMERIS_TYPE":0,"CLASSIFICATION_TYPE":"U","NORAD_CAT_ID":63021,"ELEMENT_SET_NO":999,"REV_AT_EPOCH":4020,"BSTAR":0.0013474001,"MEAN_MOTION_DOT":0.00037026,"MEAN_MOTION_DDOT":0}]
